[{"OBJECT_NAME":"DONGPO 10","OBJECT_ID":"2022-167H","EPOCH":"2026-03-09T22:44:56.137344","MEAN_MOTION":15.322785,"ECCENTRICITY":0.00061655,"INCLINATION":97.685,"RA_OF_ASC_NODE":235.0962,"ARG_OF_PERICENTER":106.9526,"MEAN_ANOMALY":253.2392,"EPHEMERIS_TYPE":0,"CLASSIFICATION_TYPE":"U","NORAD_CAT_ID":54689,"ELEMENT_SET_NO":999,"REV_AT_EPOCH":18015,"BSTAR":0.00049390523,"MEAN_MOTION_DOT":0.00015333,"MEAN_MOTION_DDOT":0},{"OBJECT_NAME":"STARLINK-32801","OBJECT_ID":"2025-034G","EPOCH":"2026-03-09T22:44:54.481056","MEAN_MOTION":15.30183304,"ECCENTRICITY":0.00013355,"INCLINATION":53.1573,"RA_OF_ASC_NODE":257.1174,"ARG_OF_PERICENTER":96.1512,"MEAN_ANOMALY":263.9641,"EPHEMERIS_TYPE":0,"CLASSIFICATION_TYPE":"U","NORAD_CAT_ID":63035,"ELEMENT_SET_NO":999,"REV_AT_EPOCH":5911,"BSTAR":0.001184157,"MEAN_MOTION_DOT":0.00034859,"MEAN_MOTION_DDOT":0}]
